CCSDS_OMM_VERS = 2.0
CREATION_DATE  = 
ORIGINATOR     = 

OBJECT_NAME    = UNKNOWN
OBJECT_ID      = 
CENTER_NAME    = EARTH
REF_FRAME      = TEME
TIME_SYSTEM    = UTC
MEAN_ELEMENT_THEORY = SGP/SGP4

EPOCH          = 2026-01-24T17:20:21.001920
MEAN_MOTION    = 13.66843509
ECCENTRICITY   = .02712472
INCLINATION    = 98.3440
RA_OF_ASC_NODE = 186.5302
ARG_OF_PERICENTER = 159.5247
MEAN_ANOMALY   = 201.7027

EPHEMERIS_TYPE = 0
CLASSIFICATION_TYPE = U
NORAD_CAT_ID   = 270077
ELEMENT_SET_NO = 999
REV_AT_EPOCH   = 30682
BSTAR          = .20850069E-2
MEAN_MOTION_DOT = .2207E-4
MEAN_MOTION_DDOT = 0

CCSDS_OMM_VERS = 2.0
CREATION_DATE  = 
ORIGINATOR     = 

OBJECT_NAME    = UNKNOWN
OBJECT_ID      = 
CENTER_NAME    = EARTH
REF_FRAME      = TEME
TIME_SYSTEM    = UTC
MEAN_ELEMENT_THEORY = SGP/SGP4

EPOCH          = 2026-01-25T19:23:44.311200
MEAN_MOTION    = 14.35924696
ECCENTRICITY   = .00196347
INCLINATION    = 86.3901
RA_OF_ASC_NODE = 60.2176
ARG_OF_PERICENTER = 84.9069
MEAN_ANOMALY   = 275.4368

EPHEMERIS_TYPE = 0
CLASSIFICATION_TYPE = U
NORAD_CAT_ID   = 270078
ELEMENT_SET_NO = 999
REV_AT_EPOCH   = 32276
BSTAR          = .36390182E-3
MEAN_MOTION_DOT = .1077E-4
MEAN_MOTION_DDOT = 0

CCSDS_OMM_VERS = 2.0
CREATION_DATE  = 
ORIGINATOR     = 

OBJECT_NAME    = UNKNOWN
OBJECT_ID      = 
CENTER_NAME    = EARTH
REF_FRAME      = TEME
TIME_SYSTEM    = UTC
MEAN_ELEMENT_THEORY = SGP/SGP4

EPOCH          = 2026-01-23T12:38:09.614688
MEAN_MOTION    = 12.38301928
ECCENTRICITY   = .01633828
INCLINATION    = 56.0488
RA_OF_ASC_NODE = 310.8042
ARG_OF_PERICENTER = 93.8835
MEAN_ANOMALY   = 268.0762

EPHEMERIS_TYPE = 0
CLASSIFICATION_TYPE = U
NORAD_CAT_ID   = 270079
ELEMENT_SET_NO = 999
REV_AT_EPOCH   = 27852
BSTAR          = .6553768E-3
MEAN_MOTION_DOT = -.3E-7
MEAN_MOTION_DDOT = 0

CCSDS_OMM_VERS = 2.0
CREATION_DATE  = 
ORIGINATOR     = 

OBJECT_NAME    = UNKNOWN
OBJECT_ID      = 
CENTER_NAME    = EARTH
REF_FRAME      = TEME
TIME_SYSTEM    = UTC
MEAN_ELEMENT_THEORY = SGP/SGP4

EPOCH          = 2026-01-18T03:54:15.642720
MEAN_MOTION    = 12.96609241
ECCENTRICITY   = .00203783
INCLINATION    = 90.2415
RA_OF_ASC_NODE = 346.7451
ARG_OF_PERICENTER = 123.6099
MEAN_ANOMALY   = 236.6969

EPHEMERIS_TYPE = 0
CLASSIFICATION_TYPE = U
NORAD_CAT_ID   = 270081
ELEMENT_SET_NO = 999
REV_AT_EPOCH   = 29055
BSTAR          = .39062792E-3
MEAN_MOTION_DOT = .12E-5
MEAN_MOTION_DDOT = 0

CCSDS_OMM_VERS = 2.0
CREATION_DATE  = 
ORIGINATOR     = 

OBJECT_NAME    = UNKNOWN
OBJECT_ID      = 
CENTER_NAME    = EARTH
REF_FRAME      = TEME
TIME_SYSTEM    = UTC
MEAN_ELEMENT_THEORY = SGP/SGP4

EPOCH          = 2026-01-26T09:57:17.169984
MEAN_MOTION    = 13.98749091
ECCENTRICITY   = .0218735
INCLINATION    = 74.0122
RA_OF_ASC_NODE = 280.7713
ARG_OF_PERICENTER = 72.9263
MEAN_ANOMALY   = 289.5703

EPHEMERIS_TYPE = 0
CLASSIFICATION_TYPE = U
NORAD_CAT_ID   = 270082
ELEMENT_SET_NO = 999
REV_AT_EPOCH   = 31354
BSTAR          = .28731954E-2
MEAN_MOTION_DOT = .5053E-4
MEAN_MOTION_DDOT = 0

CCSDS_OMM_VERS = 2.0
CREATION_DATE  = 
ORIGINATOR     = 

OBJECT_NAME    = UNKNOWN
OBJECT_ID      = 
CENTER_NAME    = EARTH
REF_FRAME      = TEME
TIME_SYSTEM    = UTC
MEAN_ELEMENT_THEORY = SGP/SGP4

EPOCH          = 2026-01-23T10:49:06.573792
MEAN_MOTION    = 13.79353408
ECCENTRICITY   = .03884778
INCLINATION    = 72.8725
RA_OF_ASC_NODE = 90.2216
ARG_OF_PERICENTER = 173.1501
MEAN_ANOMALY   = 187.5154

EPHEMERIS_TYPE = 0
CLASSIFICATION_TYPE = U
NORAD_CAT_ID   = 270084
ELEMENT_SET_NO = 999
REV_AT_EPOCH   = 30571
BSTAR          = .59943439E-2
MEAN_MOTION_DOT = .10843E-3
MEAN_MOTION_DDOT = 0

CCSDS_OMM_VERS = 2.0
CREATION_DATE  = 
ORIGINATOR     = 

OBJECT_NAME    = UNKNOWN
OBJECT_ID      = 
CENTER_NAME    = EARTH
REF_FRAME      = TEME
TIME_SYSTEM    = UTC
MEAN_ELEMENT_THEORY = SGP/SGP4

EPOCH          = 2026-01-21T11:02:39.800832
MEAN_MOTION    = 12.80846015
ECCENTRICITY   = .06534667
INCLINATION    = 99.2747
RA_OF_ASC_NODE = 285.6493
ARG_OF_PERICENTER = 245.7645
MEAN_ANOMALY   = 107.3857

EPHEMERIS_TYPE = 0
CLASSIFICATION_TYPE = U
NORAD_CAT_ID   = 270085
ELEMENT_SET_NO = 999
REV_AT_EPOCH   = 28653
BSTAR          = .40935857E-2
MEAN_MOTION_DOT = .2302E-4
MEAN_MOTION_DDOT = 0

CCSDS_OMM_VERS = 2.0
CREATION_DATE  = 
ORIGINATOR     = 

OBJECT_NAME    = UNKNOWN
OBJECT_ID      = 
CENTER_NAME    = EARTH
REF_FRAME      = TEME
TIME_SYSTEM    = UTC
MEAN_ELEMENT_THEORY = SGP/SGP4

EPOCH          = 2026-01-25T16:36:25.078752
MEAN_MOTION    = 14.97110385
ECCENTRICITY   = .00156485
INCLINATION    = 86.3514
RA_OF_ASC_NODE = 18.0978
ARG_OF_PERICENTER = 294.3984
MEAN_ANOMALY   = 65.5613

EPHEMERIS_TYPE = 0
CLASSIFICATION_TYPE = U
NORAD_CAT_ID   = 270086
ELEMENT_SET_NO = 999
REV_AT_EPOCH   = 8814
BSTAR          = .60204467E-2
MEAN_MOTION_DOT = .70244E-3
MEAN_MOTION_DDOT = 0

CCSDS_OMM_VERS = 2.0
CREATION_DATE  = 
ORIGINATOR     = 

OBJECT_NAME    = UNKNOWN
OBJECT_ID      = 
CENTER_NAME    = EARTH
REF_FRAME      = TEME
TIME_SYSTEM    = UTC
MEAN_ELEMENT_THEORY = SGP/SGP4

EPOCH          = 2026-01-08T15:40:49.455552
MEAN_MOTION    = 12.81878738
ECCENTRICITY   = .07276057
INCLINATION    = 72.8072
RA_OF_ASC_NODE = 149.3083
ARG_OF_PERICENTER = 7.5601
MEAN_ANOMALY   = 353.5748

EPHEMERIS_TYPE = 0
CLASSIFICATION_TYPE = U
NORAD_CAT_ID   = 270087
ELEMENT_SET_NO = 999
REV_AT_EPOCH   = 28496
BSTAR          = .27534142E-2
MEAN_MOTION_DOT = .1986E-4
MEAN_MOTION_DDOT = 0

CCSDS_OMM_VERS = 2.0
CREATION_DATE  = 
ORIGINATOR     = 

OBJECT_NAME    = UNKNOWN
OBJECT_ID      = 
CENTER_NAME    = EARTH
REF_FRAME      = TEME
TIME_SYSTEM    = UTC
MEAN_ELEMENT_THEORY = SGP/SGP4

EPOCH          = 2026-01-23T00:40:17.982624
MEAN_MOTION    = 12.25969784
ECCENTRICITY   = .01334869
INCLINATION    = 74.0258
RA_OF_ASC_NODE = 130.3887
ARG_OF_PERICENTER = 98.6520
MEAN_ANOMALY   = 262.9666

EPHEMERIS_TYPE = 0
CLASSIFICATION_TYPE = U
NORAD_CAT_ID   = 270088
ELEMENT_SET_NO = 999
REV_AT_EPOCH   = 27565
BSTAR          = .56903095E-3
MEAN_MOTION_DOT = .51E-6
MEAN_MOTION_DDOT = 0

CCSDS_OMM_VERS = 2.0
CREATION_DATE  = 
ORIGINATOR     = 

OBJECT_NAME    = UNKNOWN
OBJECT_ID      = 
CENTER_NAME    = EARTH
REF_FRAME      = TEME
TIME_SYSTEM    = UTC
MEAN_ELEMENT_THEORY = SGP/SGP4

EPOCH          = 2026-01-23T03:37:58.787904
MEAN_MOTION    = 14.23852986
ECCENTRICITY   = .0035474
INCLINATION    = 98.8610
RA_OF_ASC_NODE = 337.1118
ARG_OF_PERICENTER = 314.0605
MEAN_ANOMALY   = 45.7653

EPHEMERIS_TYPE = 0
CLASSIFICATION_TYPE = U
NORAD_CAT_ID   = 270089
ELEMENT_SET_NO = 999
REV_AT_EPOCH   = 31992
BSTAR          = .31040614E-3
MEAN_MOTION_DOT = .67E-5
MEAN_MOTION_DDOT = 0

CCSDS_OMM_VERS = 2.0
CREATION_DATE  = 
ORIGINATOR     = 

OBJECT_NAME    = UNKNOWN
OBJECT_ID      = 
CENTER_NAME    = EARTH
REF_FRAME      = TEME
TIME_SYSTEM    = UTC
MEAN_ELEMENT_THEORY = SGP/SGP4

EPOCH          = 2026-01-25T20:51:27.143424
MEAN_MOTION    = 14.47490694
ECCENTRICITY   = .00113598
INCLINATION    = 97.9800
RA_OF_ASC_NODE = 253.3338
ARG_OF_PERICENTER = 329.5215
MEAN_ANOMALY   = 30.5317

EPHEMERIS_TYPE = 0
CLASSIFICATION_TYPE = U
NORAD_CAT_ID   = 270090
ELEMENT_SET_NO = 999
REV_AT_EPOCH   = 32487
BSTAR          = .27683712E-3
MEAN_MOTION_DOT = .977E-5
MEAN_MOTION_DDOT = 0

CCSDS_OMM_VERS = 2.0
CREATION_DATE  = 
ORIGINATOR     = 

OBJECT_NAME    = UNKNOWN
OBJECT_ID      = 
CENTER_NAME    = EARTH
REF_FRAME      = TEME
TIME_SYSTEM    = UTC
MEAN_ELEMENT_THEORY = SGP/SGP4

EPOCH          = 2026-01-26T04:39:45.476640
MEAN_MOTION    = 12.95519646
ECCENTRICITY   = .00315065
INCLINATION    = 90.2412
RA_OF_ASC_NODE = 6.9199
ARG_OF_PERICENTER = 148.0417
MEAN_ANOMALY   = 212.2622

EPHEMERIS_TYPE = 0
CLASSIFICATION_TYPE = U
NORAD_CAT_ID   = 270091
ELEMENT_SET_NO = 999
REV_AT_EPOCH   = 29162
BSTAR          = .56392537E-3
MEAN_MOTION_DOT = .167E-5
MEAN_MOTION_DDOT = 0

CCSDS_OMM_VERS = 2.0
CREATION_DATE  = 
ORIGINATOR     = 

OBJECT_NAME    = UNKNOWN
OBJECT_ID      = 
CENTER_NAME    = EARTH
REF_FRAME      = TEME
TIME_SYSTEM    = UTC
MEAN_ELEMENT_THEORY = SGP/SGP4

EPOCH          = 2026-01-11T23:37:20.018208
MEAN_MOTION    = 12.41711037
ECCENTRICITY   = .02221284
INCLINATION    = 82.0601
RA_OF_ASC_NODE = 117.1092
ARG_OF_PERICENTER = 171.9938
MEAN_ANOMALY   = 188.4782

EPHEMERIS_TYPE = 0
CLASSIFICATION_TYPE = U
NORAD_CAT_ID   = 270092
ELEMENT_SET_NO = 999
REV_AT_EPOCH   = 1741
BSTAR          = .60412575E-2
MEAN_MOTION_DOT = .908E-5
MEAN_MOTION_DDOT = 0

CCSDS_OMM_VERS = 2.0
CREATION_DATE  = 
ORIGINATOR     = 

OBJECT_NAME    = UNKNOWN
OBJECT_ID      = 
CENTER_NAME    = EARTH
REF_FRAME      = TEME
TIME_SYSTEM    = UTC
MEAN_ELEMENT_THEORY = SGP/SGP4

EPOCH          = 2026-01-23T04:17:05.093952
MEAN_MOTION    = 12.92567663
ECCENTRICITY   = .00281872
INCLINATION    = 90.2400
RA_OF_ASC_NODE = 2.7883
ARG_OF_PERICENTER = 303.4309
MEAN_ANOMALY   = 56.4114

EPHEMERIS_TYPE = 0
CLASSIFICATION_TYPE = U
NORAD_CAT_ID   = 270093
ELEMENT_SET_NO = 999
REV_AT_EPOCH   = 29053
BSTAR          = .96557825E-3
MEAN_MOTION_DOT = .269E-5
MEAN_MOTION_DDOT = 0

CCSDS_OMM_VERS = 2.0
CREATION_DATE  = 
ORIGINATOR     = 

OBJECT_NAME    = UNKNOWN
OBJECT_ID      = 
CENTER_NAME    = EARTH
REF_FRAME      = TEME
TIME_SYSTEM    = UTC
MEAN_ELEMENT_THEORY = SGP/SGP4

EPOCH          = 2026-01-19T05:16:45.346656
MEAN_MOTION    = 12.23911328
ECCENTRICITY   = .01189085
INCLINATION    = 102.5856
RA_OF_ASC_NODE = 0.1213
ARG_OF_PERICENTER = 194.8880
MEAN_ANOMALY   = 164.8657

EPHEMERIS_TYPE = 0
CLASSIFICATION_TYPE = U
NORAD_CAT_ID   = 270094
ELEMENT_SET_NO = 999
REV_AT_EPOCH   = 27468
BSTAR          = .46026783E-3
MEAN_MOTION_DOT = .5E-7
MEAN_MOTION_DDOT = 0

